SL-3 R/B                
1 19046U 88032B   18142.88267856 -.00000511  00000-0 -33486-4 0  9994
2 19046  97.4797 184.0646 0036084 259.8381  99.8774 15.02412197623356
SL-16 R/B               
1 19120U 88039B   18143.53216017 -.00000006  00000-0  20247-4 0  9999
2 19120  71.0129 325.7854 0021051  21.0601 339.1386 14.19183023554670
COSMOS 1953             
1 19210U 88050A   18142.87982055 -.00000063  00000-0 -64237-5 0  9992
2 19210  82.5193  63.9620 0013594 175.2625 184.8733 15.05564999607818
SL-8 R/B                
1 19257U 88053B   18142.93588515  .00000084  00000-0  36791-4 0  9990
2 19257  74.0481 311.9249 0019652 119.7643 350.4433 14.37401650567307
COSMOS 1975             
1 19573U 88093A   18142.70572546  .00000069  00000-0  28409-5 0  9998
2 19573  82.5209  16.9262 0013128 216.8809 143.1516 15.04466668610855
SL-14 R/B               
1 19574U 88093B   18142.61283291  .00000061  00000-0  44736-5 0  9998
2 19574  82.5323 187.7198 0023204  78.5729  34.4138 14.83264221578670
SL-16 R/B               
1 19650U 88102B   18142.92687586 -.00000058  00000-0 -50243-5 0  9991
2 19650  71.0006  20.7135 0013449  17.6693 342.4895 14.15767646523808
INTERCOSMOS 24          
1 20261U 89080A   18142.94054591  .00000157  00000-0  39654-4 0  9993
2 20261  82.5952 149.9037 1204283  33.2733 333.8497 12.55988842309021
SL-14 R/B               
1 20262U 89080C   18143.33895299  .00000046  00000-0  96472-5 0  9995
2 20262  82.5946 198.2253 1236799 201.0211 153.5495 12.48894081304174
DELTA 1 R/B             
1 20323U 89089B   18143.53487728  .00000018  00000-0  13504-4 0  9991
2 20323  97.1161  41.0405 0073380  90.2677 270.6928 14.48256501503988
DELTA 2 R/B(1)          
1 20453U 90008B   18143.02485164  .00001218  00000-0  72316-4 0  9993
2 20453  35.6251  32.0857 0284955 117.1136 245.8941 14.84196024498706
COSMOS 2058             
1 20465U 90010A   18143.43670295  .00000233  00000-0  17560-4 0  9991
2 20465  82.4889 280.6529 0014458 224.5152 135.4910 14.97720461536269
SL-14 R/B               
1 20466U 90010B   18142.81123704  .00000069  00000-0  57915-5 0  9997
2 20466  82.5054  54.8273 0019270 305.7489  54.1932 14.81323958527774
SL-14 R/B               
1 20511U 90018B   18143.13424846  .00000059  00000-0  47358-5 0  9992
2 20511  82.5230 357.5343 0019039  79.4009  38.8388 14.79981189522343
HST                     
1 20580U 90037B   18143.51017135  .00000431  00000-0  15412-4 0  9999
2 20580  28.4695 278.2369 0002518 233.3950 192.4888 15.09041396341735
SL-16 R/B               
1 20625U 90046B   18143.18776545 -.00000176  00000-0 -66437-4 0  9990
2 20625  70.9977 155.5389 0016378 305.5293  54.4301 14.14633821445917
COSMOS 2084             
1 20663U 90055A   18143.16173937 -.00000055  00000-0  13528-4 0  9994
2 20663  62.7912 173.2062 0124931 123.6329 237.6759 14.91832549510521
SL-6 R/B(2)             
1 20666U 90055D   18142.94839237 -.00000056  00000-0  13323-4 0  9998
2 20666  62.7850  91.9235 0099597 144.2548 216.5269 14.92127598512407
SL-8 R/B                
1 20775U 90078B   18143.03503820  .00003019  00000-0  14791-3 0  9991
2 20775  82.9261 129.3014 0583134  14.3027 347.3895 14.32118640397381
SL-8 R/B                
1 21088U 91006B   18142.95742742  .00000064  00000-0  48555-4 0  9992
2 21088  82.9399 127.6586 0024058  89.0534 329.9663 13.77084076372096
OKEAN-3                 
1 21397U 91039A   18143.48472680  .00000190  00000-0  15864-4 0  9998
2 21397  82.5212 175.1263 0018077 173.9142 186.2302 14.92666055460544
COSMOS 2151             
1 21422U 91042A   18142.97913380  .00000184  00000-0  15652-4 0  9999
2 21422  82.4996 283.0582 0012913 236.2936 123.7054 14.91952271459164
SL-14 R/B               
1 21423U 91042B   18142.72757124  .00000034  00000-0  14565-5 0  9992
2 21423  82.4944   4.1191 0016699 214.1900 145.8239 14.79732533452792
ERS-1                   
1 21574U 91050A   18142.91103677  .00000053  00000-0  32050-4 0  9996
2 21574  98.5025  90.4624 0033616  23.0229 337.2455 14.37648211406413
ARIANE 40 R/B           
1 21610U 91050F   18142.77032378  .00000011  00000-0  17481-4 0  9995
2 21610  98.5568 205.5201 0003467  29.5476  78.2903 14.40837643408732
INTERCOSMOS 25          
1 21819U 91086A   18142.87734821 -.00000123  00000-0 -32988-4 0  9993
2 21819  82.5934 219.1796 1517992  84.0186 293.1181 12.04892402153163
SL-14 R/B               
1 21820U 91086B   18142.97384985  .00000041  00000-0  85704-5 0  9990
2 21820  82.5619 278.0222 1575585 285.1353  58.1239 11.93379684147317
SL-8 R/B                
1 21876U 92008B   18142.72953956  .00000027  00000-0  11503-4 0  9998
2 21876  82.9289 224.8417 0035354 164.2478 306.5284 13.75620554317832
SL-8 R/B                
1 21938U 92020B   18142.96643545 -.00000033  00000-0 -49955-4 0  9998
2 21938  82.9285 108.2136 0028475 326.7484  91.0732 13.75260543309695
SL-16 R/B               
1 22220U 92076B   18142.94577351 -.00000199  00000-0 -75762-4 0  9991
2 22220  71.0016  64.0629 0010779 120.3447 310.1462 14.16432458318554
SL-16 R/B               
1 22285U 92093B   18142.62577385 -.00000095  00000-0 -24396-4 0  9995
2 22285  71.0216 220.2179 0005581 309.9278  50.1354 14.15019248310274
COSMOS 2228             
1 22286U 92094A   18143.21687095  .00000163  00000-0  14923-4 0  9992
2 22286  82.5224  53.4079 0022799  73.6775 286.6947 14.87936844373051
SL-16 R/B               
1 22566U 93016B   18142.89541237 -.00000073  00000-0 -13203-4 0  9990
2 22566  71.0091  73.8459 0011567 326.1721  33.8663 14.14957301299317
COSMOS 2242             
1 22626U 93024A   18143.19071237  .00000192  00000-0  18243-4 0  9997
2 22626  82.5228  81.2518 0020594  73.5076 286.8402 14.87801861356705
SL-16 R/B               
1 22803U 93059B   18142.82849858  .00000056  00000-0  52121-4 0  9995
2 22803  70.9913 253.7256 0018994 233.0107 126.9279 14.16793545276391
ARIANE 40 R/B           
1 22830U 93061H   18142.91845696 -.00000030  00000-0  61010-5 0  9995
2 22830  98.8592 170.6859 0011195  22.0552 338.1110 14.31415815286597
COSMOS 2278             
1 23087U 94023A   18142.89651216 -.00000095  00000-0 -25511-4 0  9996
2 23087  71.0531   8.9657 0007156  49.5640 310.6105 14.13760410242260
SL-16 R/B               
1 23088U 94023B   18142.81951458 -.00000196  00000-0 -77327-4 0  9994
2 23088  70.9980 289.2138 0005252 289.1316  70.9237 14.14663718243573
SL-16 R/B               
1 23343U 94074B   18142.75522223  .00000003  00000-0  79081-5 0  9996
2 23343  98.1068 187.3266 0008168  68.5830  48.3439 14.76731469266738
SL-16 R/B               
1 23405U 94077B   18143.18941169  .00000111  00000-0  81609-4 0  9998
2 23405  70.9834 220.5431 0003040 209.4073 150.6879 14.15199656213612
ERS-2                   
1 23560U 95021A   18142.70501071  .00000895  00000-0  43392-4 0  9997
2 23560  98.5382 185.8844 0002726 212.0856 148.0211 15.21731846227008
ARIANE 40+ R/B          
1 23561U 95021B   18142.92953656  .00000026  00000-0  24067-4 0  9996
2 23561  98.7925 157.0257 0006454 344.2751  75.1230 14.37872463209858
SL-16 R/B               
1 23705U 95058B   18142.89068470  .00000168  00000-0  11079-3 0  9998
2 23705  71.0233  36.3113 0011462 148.6173 211.5636 14.15110605164948
SL-16 R/B               
1 24298U 96051B   18142.93830028 -.00000207  00000-0 -85745-4 0  9999
2 24298  70.8377  65.9904 0014162  29.8591 330.3334 14.12438148119534
ORBVIEW 2 (SEASTAR)     
1 24883U 97037A   18142.91893443  .00000053  00000-0  35086-4 0  9992
2 24883  98.5589 252.4282 0002728 155.7299 204.4014 14.33453083100328
SL-16 R/B               
1 25400U 98043G   18142.81585604 -.00000022  00000-0  87505-5 0  9993
2 25400  98.5315  85.9716 0010498  28.8794 331.2965 14.25428656 33222
SL-16 R/B               
1 25407U 98045B   18142.92667203  .00000039  00000-0  44098-4 0  9996
2 25407  71.0129  47.4740 0006284  36.8047 323.3506 14.15772714 24001
ISS (ZARYA)             
1 25544U 98067A   18142.80040509 -.00006356  00000-0 -88977-4 0  9997
2 25544  51.6461 145.2725 0003996 113.5012 244.8725 15.54077985114561
SL-8 R/B                
1 25723U 99022C   18143.38871087  .00005576  00000-0  74962-4 0  9995
2 25723  48.4143 146.2193 0008698 244.0496 115.9555 15.59418690 59509
CZ-4B R/B               
1 25732U 99025C   18142.94691456 -.00000022  00000-0  11763-4 0  9991
2 25732  98.9937 153.9020 0036964 203.0520 214.0960 14.17649180984673
OKEAN-O                 
1 25860U 99039A   18143.47224041  .00000037  00000-0  12963-4 0  9997
2 25860  98.2153 138.6381 0001817  99.5132 260.6282 14.76547901 14046
SL-16 R/B               
1 25861U 99039B   18142.92077036  .00000031  00000-0  11628-4 0  9998
2 25861  98.1502 122.4475 0017002  70.3156 342.3742 14.78478506 15838
TERRA                   
1 25994U 99068A   18143.18855507 -.00000054  00000-0 -20297-5 0  9993
2 25994  98.2060 218.4192 0001281  98.0345 262.1025 14.57102218980189
ENVISAT                 
1 27386U 02009A   18143.55539366 -.00000004  00000-0  12263-4 0  9999
2 27386  98.1863 178.7744 0001276  89.1962  84.4263 14.37922431849983
IDEFIX & ARIANE 42P R/B 
1 27422U 02021B   18143.46196141 -.00000021  00000-0  78922-5 0  9998
2 27422  98.2549 130.3295 0011311 312.7793  47.2437 14.29262065835288
AQUA                    
1 27424U 02022A   18142.87877571  .00000106  00000-0  33612-4 0  9997
2 27424  98.2012  84.4647 0002621 116.9831 320.2656 14.57122151853690
CZ-4B R/B               
1 27432U 02024C   18142.94981584 -.00000004  00000-0  21417-4 0  9994
2 27432  99.0320 124.2711 0050967 150.7351 268.2139 14.14064257826731
MIDORI II (ADEOS-II)    
1 27597U 02056A   18142.90401330  .00000047  00000-0  36407-4 0  9994
2 27597  98.4190 103.9456 0002166  70.4089 289.7326 14.27349900803887
H-2A R/B                
1 27601U 02056E   18143.30523458  .00000023  00000-0  23488-4 0  9990
2 27601  98.3295 203.5248 0072219   7.3869  38.9116 14.31839095806489
